GOES 18                 
1 51850U 22021A   26095.53184713  .00000098  00000+0  00000+0 0  9995
2 51850   0.0483  40.0599 0000637  35.3456 172.8934  1.00270314  5866
GOES 19                 
1 60133U 24119A   26095.51619824 -.00000247  00000+0  00000+0 0  9990
2 60133   0.0443  41.5874 0001032  22.6159 240.2467  1.00271467  6230
